CCSDS_OMM_VERS = 2.0
CREATION_DATE  = 
ORIGINATOR     = 

OBJECT_NAME    = STARLINK-36088
OBJECT_ID      = 2025-286S
CENTER_NAME    = EARTH
REF_FRAME      = TEME
TIME_SYSTEM    = UTC
MEAN_ELEMENT_THEORY = SGP/SGP4

EPOCH          = 2025-12-28T04:00:01.998720
MEAN_MOTION    = 15.49495740
ECCENTRICITY   = .0001451
INCLINATION    = 53.1596
RA_OF_ASC_NODE = 333.8629
ARG_OF_PERICENTER = 71.9190
MEAN_ANOMALY   = 201.6085

EPHEMERIS_TYPE = 0
CLASSIFICATION_TYPE = U
NORAD_CAT_ID   = 66941
ELEMENT_SET_NO = 999
REV_AT_EPOCH   = 447
BSTAR          = -.64376E-2
MEAN_MOTION_DOT = -.345403E-2
MEAN_MOTION_DDOT = 0

CCSDS_OMM_VERS = 2.0
CREATION_DATE  = 
ORIGINATOR     = 

OBJECT_NAME    = STARLINK-36100
OBJECT_ID      = 2025-286T
CENTER_NAME    = EARTH
REF_FRAME      = TEME
TIME_SYSTEM    = UTC
MEAN_ELEMENT_THEORY = SGP/SGP4

EPOCH          = 2025-12-28T04:00:01.998720
MEAN_MOTION    = 15.49305110
ECCENTRICITY   = .000179
INCLINATION    = 53.1595
RA_OF_ASC_NODE = 333.9272
ARG_OF_PERICENTER = 66.7775
MEAN_ANOMALY   = 174.9178

EPHEMERIS_TYPE = 0
CLASSIFICATION_TYPE = U
NORAD_CAT_ID   = 66942
ELEMENT_SET_NO = 999
REV_AT_EPOCH   = 440
BSTAR          = -.69993E-4
MEAN_MOTION_DOT = -.4339E-4
MEAN_MOTION_DDOT = 0

CCSDS_OMM_VERS = 2.0
CREATION_DATE  = 
ORIGINATOR     = 

OBJECT_NAME    = STARLINK-36109
OBJECT_ID      = 2025-286U
CENTER_NAME    = EARTH
REF_FRAME      = TEME
TIME_SYSTEM    = UTC
MEAN_ELEMENT_THEORY = SGP/SGP4

EPOCH          = 2025-12-28T04:00:01.998720
MEAN_MOTION    = 15.49318069
ECCENTRICITY   = .0001792
INCLINATION    = 53.1595
RA_OF_ASC_NODE = 333.9233
ARG_OF_PERICENTER = 66.4229
MEAN_ANOMALY   = 177.1871

EPHEMERIS_TYPE = 0
CLASSIFICATION_TYPE = U
NORAD_CAT_ID   = 66943
ELEMENT_SET_NO = 999
REV_AT_EPOCH   = 440
BSTAR          = -.61389E-3
MEAN_MOTION_DOT = -.34453E-3
MEAN_MOTION_DDOT = 0

CCSDS_OMM_VERS = 2.0
CREATION_DATE  = 
ORIGINATOR     = 

OBJECT_NAME    = STARLINK-36112
OBJECT_ID      = 2025-286V
CENTER_NAME    = EARTH
REF_FRAME      = TEME
TIME_SYSTEM    = UTC
MEAN_ELEMENT_THEORY = SGP/SGP4

EPOCH          = 2025-12-28T04:00:01.998720
MEAN_MOTION    = 15.49327119
ECCENTRICITY   = .0001743
INCLINATION    = 53.1597
RA_OF_ASC_NODE = 333.9186
ARG_OF_PERICENTER = 86.9404
MEAN_ANOMALY   = 158.6163

EPHEMERIS_TYPE = 0
CLASSIFICATION_TYPE = U
NORAD_CAT_ID   = 66944
ELEMENT_SET_NO = 999
REV_AT_EPOCH   = 447
BSTAR          = -.14112E-2
MEAN_MOTION_DOT = -.78205E-3
MEAN_MOTION_DDOT = 0

CCSDS_OMM_VERS = 2.0
CREATION_DATE  = 
ORIGINATOR     = 

OBJECT_NAME    = STARLINK-36110
OBJECT_ID      = 2025-286W
CENTER_NAME    = EARTH
REF_FRAME      = TEME
TIME_SYSTEM    = UTC
MEAN_ELEMENT_THEORY = SGP/SGP4

EPOCH          = 2025-12-28T04:00:01.998720
MEAN_MOTION    = 15.49322421
ECCENTRICITY   = .0001789
INCLINATION    = 53.1597
RA_OF_ASC_NODE = 333.9147
ARG_OF_PERICENTER = 92.9753
MEAN_ANOMALY   = 154.5026

EPHEMERIS_TYPE = 0
CLASSIFICATION_TYPE = U
NORAD_CAT_ID   = 66945
ELEMENT_SET_NO = 999
REV_AT_EPOCH   = 447
BSTAR          = -.12767E-2
MEAN_MOTION_DOT = -.70849E-3
MEAN_MOTION_DDOT = 0

CCSDS_OMM_VERS = 2.0
CREATION_DATE  = 
ORIGINATOR     = 

OBJECT_NAME    = STARLINK-36115
OBJECT_ID      = 2025-286X
CENTER_NAME    = EARTH
REF_FRAME      = TEME
TIME_SYSTEM    = UTC
MEAN_ELEMENT_THEORY = SGP/SGP4

EPOCH          = 2025-12-28T04:00:01.998720
MEAN_MOTION    = 15.49329399
ECCENTRICITY   = .0001811
INCLINATION    = 53.1596
RA_OF_ASC_NODE = 333.9107
ARG_OF_PERICENTER = 88.9070
MEAN_ANOMALY   = 160.4819

EPHEMERIS_TYPE = 0
CLASSIFICATION_TYPE = U
NORAD_CAT_ID   = 66946
ELEMENT_SET_NO = 999
REV_AT_EPOCH   = 447
BSTAR          = -.14615E-2
MEAN_MOTION_DOT = -.80958E-3
MEAN_MOTION_DDOT = 0

CCSDS_OMM_VERS = 2.0
CREATION_DATE  = 
ORIGINATOR     = 

OBJECT_NAME    = STARLINK-36089
OBJECT_ID      = 2025-286Y
CENTER_NAME    = EARTH
REF_FRAME      = TEME
TIME_SYSTEM    = UTC
MEAN_ELEMENT_THEORY = SGP/SGP4

EPOCH          = 2025-12-28T04:00:01.998720
MEAN_MOTION    = 15.49329598
ECCENTRICITY   = .000191
INCLINATION    = 53.1595
RA_OF_ASC_NODE = 333.9024
ARG_OF_PERICENTER = 90.6025
MEAN_ANOMALY   = 162.6175

EPHEMERIS_TYPE = 0
CLASSIFICATION_TYPE = U
NORAD_CAT_ID   = 66947
ELEMENT_SET_NO = 999
REV_AT_EPOCH   = 447
BSTAR          = -.13662E-2
MEAN_MOTION_DOT = -.75756E-3
MEAN_MOTION_DDOT = 0

CCSDS_OMM_VERS = 2.0
CREATION_DATE  = 
ORIGINATOR     = 

OBJECT_NAME    = STARLINK-36116
OBJECT_ID      = 2025-286Z
CENTER_NAME    = EARTH
REF_FRAME      = TEME
TIME_SYSTEM    = UTC
MEAN_ELEMENT_THEORY = SGP/SGP4

EPOCH          = 2025-12-28T04:00:01.998720
MEAN_MOTION    = 15.49336202
ECCENTRICITY   = .0001808
INCLINATION    = 53.1595
RA_OF_ASC_NODE = 333.9068
ARG_OF_PERICENTER = 90.2700
MEAN_ANOMALY   = 161.0358

EPHEMERIS_TYPE = 0
CLASSIFICATION_TYPE = U
NORAD_CAT_ID   = 66948
ELEMENT_SET_NO = 999
REV_AT_EPOCH   = 447
BSTAR          = -.16772E-2
MEAN_MOTION_DOT = -.92723E-3
MEAN_MOTION_DDOT = 0

CCSDS_OMM_VERS = 2.0
CREATION_DATE  = 
ORIGINATOR     = 

OBJECT_NAME    = STARLINK-36096
OBJECT_ID      = 2025-286AA
CENTER_NAME    = EARTH
REF_FRAME      = TEME
TIME_SYSTEM    = UTC
MEAN_ELEMENT_THEORY = SGP/SGP4

EPOCH          = 2025-12-28T04:00:01.998720
MEAN_MOTION    = 15.49265097
ECCENTRICITY   = .0001901
INCLINATION    = 53.1596
RA_OF_ASC_NODE = 333.8987
ARG_OF_PERICENTER = 68.7305
MEAN_ANOMALY   = 186.3752

EPHEMERIS_TYPE = 0
CLASSIFICATION_TYPE = U
NORAD_CAT_ID   = 66949
ELEMENT_SET_NO = 999
REV_AT_EPOCH   = 447
BSTAR          = .11378E-2
MEAN_MOTION_DOT = .63247E-3
MEAN_MOTION_DDOT = 0

CCSDS_OMM_VERS = 2.0
CREATION_DATE  = 
ORIGINATOR     = 

OBJECT_NAME    = STARLINK-36111
OBJECT_ID      = 2025-286AB
CENTER_NAME    = EARTH
REF_FRAME      = TEME
TIME_SYSTEM    = UTC
MEAN_ELEMENT_THEORY = SGP/SGP4

EPOCH          = 2025-12-28T04:00:01.998720
MEAN_MOTION    = 15.49327412
ECCENTRICITY   = .0001835
INCLINATION    = 53.1597
RA_OF_ASC_NODE = 333.8908
ARG_OF_PERICENTER = 85.4756
MEAN_ANOMALY   = 173.4956

EPHEMERIS_TYPE = 0
CLASSIFICATION_TYPE = U
NORAD_CAT_ID   = 66950
ELEMENT_SET_NO = 999
REV_AT_EPOCH   = 447
BSTAR          = -.13188E-2
MEAN_MOTION_DOT = -.73163E-3
MEAN_MOTION_DDOT = 0

CCSDS_OMM_VERS = 2.0
CREATION_DATE  = 
ORIGINATOR     = 

OBJECT_NAME    = STARLINK-35999
OBJECT_ID      = 2025-286AC
CENTER_NAME    = EARTH
REF_FRAME      = TEME
TIME_SYSTEM    = UTC
MEAN_ELEMENT_THEORY = SGP/SGP4

EPOCH          = 2025-12-28T04:00:01.998720
MEAN_MOTION    = 15.49329890
ECCENTRICITY   = .0001948
INCLINATION    = 53.1596
RA_OF_ASC_NODE = 333.8868
ARG_OF_PERICENTER = 90.8574
MEAN_ANOMALY   = 170.0305

EPHEMERIS_TYPE = 0
CLASSIFICATION_TYPE = U
NORAD_CAT_ID   = 66951
ELEMENT_SET_NO = 999
REV_AT_EPOCH   = 447
BSTAR          = -.13923E-2
MEAN_MOTION_DOT = -.77185E-3
MEAN_MOTION_DDOT = 0

CCSDS_OMM_VERS = 2.0
CREATION_DATE  = 
ORIGINATOR     = 

OBJECT_NAME    = STARLINK-36122
OBJECT_ID      = 2025-286AD
CENTER_NAME    = EARTH
REF_FRAME      = TEME
TIME_SYSTEM    = UTC
MEAN_ELEMENT_THEORY = SGP/SGP4

EPOCH          = 2025-12-28T04:00:01.998720
MEAN_MOTION    = 15.49323874
ECCENTRICITY   = .0001753
INCLINATION    = 53.1596
RA_OF_ASC_NODE = 333.8948
ARG_OF_PERICENTER = 91.0182
MEAN_ANOMALY   = 166.0398

EPHEMERIS_TYPE = 0
CLASSIFICATION_TYPE = U
NORAD_CAT_ID   = 66952
ELEMENT_SET_NO = 999
REV_AT_EPOCH   = 447
BSTAR          = -.12305E-2
MEAN_MOTION_DOT = -.68326E-3
MEAN_MOTION_DDOT = 0

