STARLINK-36088          
1 66941U 25286S   25362.16668980 -.00345403  00000+0 -64376-2 0  9999
2 66941  53.1596 333.8629 0001451  71.9190 201.6085 15.49495740  4474
STARLINK-36100          
1 66942U 25286T   25362.16668980 -.00004339  00000+0 -69993-4 0  9992
2 66942  53.1595 333.9272 0001790  66.7775 174.9178 15.49305110  4405
STARLINK-36109          
1 66943U 25286U   25362.16668980 -.00034453  00000+0 -61389-3 0  9993
2 66943  53.1595 333.9233 0001792  66.4229 177.1871 15.49318069  4408
STARLINK-36112          
1 66944U 25286V   25362.16668980 -.00078205  00000+0 -14112-2 0  9998
2 66944  53.1597 333.9186 0001743  86.9404 158.6163 15.49327119  4477
STARLINK-36110          
1 66945U 25286W   25362.16668980 -.00070849  00000+0 -12767-2 0  9999
2 66945  53.1597 333.9147 0001789  92.9753 154.5026 15.49322421  4473
STARLINK-36115          
1 66946U 25286X   25362.16668980 -.00080958  00000+0 -14615-2 0  9996
2 66946  53.1596 333.9107 0001811  88.9070 160.4819 15.49329399  4479
STARLINK-36089          
1 66947U 25286Y   25362.16668980 -.00075756  00000+0 -13662-2 0  9998
2 66947  53.1595 333.9024 0001910  90.6025 162.6175 15.49329598  4477
STARLINK-36116          
1 66948U 25286Z   25362.16668980 -.00092723  00000+0 -16772-2 0  9997
2 66948  53.1595 333.9068 0001808  90.2700 161.0358 15.49336202  4474
STARLINK-36096          
1 66949U 25286AA  25362.16668980  .00063247  00000+0  11378-2 0  9992
2 66949  53.1596 333.8987 0001901  68.7305 186.3752 15.49265097  4471
STARLINK-36111          
1 66950U 25286AB  25362.16668980 -.00073163  00000+0 -13188-2 0  9995
2 66950  53.1597 333.8908 0001835  85.4756 173.4956 15.49327412  4472
STARLINK-35999          
1 66951U 25286AC  25362.16668980 -.00077185  00000+0 -13923-2 0  9991
2 66951  53.1596 333.8868 0001948  90.8574 170.0305 15.49329890  4473
STARLINK-36122          
1 66952U 25286AD  25362.16668980 -.00068326  00000+0 -12305-2 0  9992
2 66952  53.1596 333.8948 0001753  91.0182 166.0398 15.49323874  4478
